{"type": "FeatureCollection", "features": [ {"type": "Feature", "properties": {"norad_id": 34327, "name": "COSMOS 2251 DEB", "group": "cosmos-2251-debris", "lat": -57.24465080123944, "lon": 131.10883997186167, "alt_km": 587.3765434793304, "timestamp": "2025-12-19T20:43:00.479892+00:00", "meta": {"OBJECT_NAME": "COSMOS 2251 DEB", "OBJECT_ID": "1993-036NZ", "EPOCH": "2025-12-19T05:38:29.560704", "MEAN_MOTION": 14.89315543, "ECCENTRICITY": 0.00332834, "INCLINATION": 73.9926, "RA_OF_ASC_NODE": 158.8688, "ARG_OF_PERICENTER": 333.8981, "MEAN_ANOMALY": 198.9676, "EPHEMERIS_TYPE": 0, "CLASSIFICATION_TYPE": "U", "NORAD_CAT_ID": 34327, "ELEMENT_SET_NO": 999, "REV_AT_EPOCH": 89604, "BSTAR": 0.00088590977, "MEAN_MOTION_DOT": 8.46e-05, "MEAN_MOTION_DDOT": 0}, "tle": {"line1": "1 34327U 93036NZ  25353.23506436  .00008460  00000+0  88591-3 0  9998", "line2": "2 34327  73.9926 158.8688 0033283 333.8981 198.9676 14.89315543896041"}}, "geometry": {"type": "Point", "coordinates": [131.10883997186167, -57.24465080123944]}}, {"type": "Feature", "properties": {"norad_id": 34340, "name": "COSMOS 2251 DEB", "group": "cosmos-2251-debris", "lat": 12.645244015126437, "lon": 112.4178091110303, "alt_km": 1080.0363392421723, "timestamp": "2025-12-19T20:43:00.479903+00:00", "meta": {"OBJECT_NAME": "COSMOS 2251 DEB", "OBJECT_ID": "1993-036PN", "EPOCH": "2025-12-19T06:47:01.548384", "MEAN_MOTION": 13.79596537, "ECCENTRICITY": 0.02834735, "INCLINATION": 74.0787, "RA_OF_ASC_NODE": 297.0588, "ARG_OF_PERICENTER": 43.304, "MEAN_ANOMALY": 118.5291, "EPHEMERIS_TYPE": 0, "CLASSIFICATION_TYPE": "U", "NORAD_CAT_ID": 34340, "ELEMENT_SET_NO": 999, "REV_AT_EPOCH": 84358, "BSTAR": 0.0012460997, "MEAN_MOTION_DOT": 1.716e-05, "MEAN_MOTION_DDOT": 0}, "tle": {"line1": "1 34340U 93036PN  25353.28265681  .00001716  00000+0  12461-2 0  9991", "line2": "2 34340  74.0787 297.0588 0283473  43.3040 118.5291 13.79596537843589"}}, "geometry": {"type": "Point", "coordinates": [112.4178091110303, 12.645244015126437]}}, {"type": "Feature", "properties": {"norad_id": 34343, "name": "COSMOS 2251 DEB", "group": "cosmos-2251-debris", "lat": 20.00941367970261, "lon": 81.73071942308887, "alt_km": 648.0781929083887, "timestamp": "2025-12-19T20:43:00.479914+00:00", "meta": {"OBJECT_NAME": "COSMOS 2251 DEB", "OBJECT_ID": "1993-036PR", "EPOCH": "2025-12-19T04:23:01.279680", "MEAN_MOTION": 14.69535137, "ECCENTRICITY": 0.00239373, "INCLINATION": 74.0207, "RA_OF_ASC_NODE": 77.0603, "ARG_OF_PERICENTER": 349.622, "MEAN_ANOMALY": 32.3565, "EPHEMERIS_TYPE": 0, "CLASSIFICATION_TYPE": "U", "NORAD_CAT_ID": 34343, "ELEMENT_SET_NO": 999, "REV_AT_EPOCH": 88825, "BSTAR": 0.00093833278, "MEAN_MOTION_DOT": 5.565e-05, "MEAN_MOTION_DDOT": 0}, "tle": {"line1": "1 34343U 93036PR  25353.18265370  .00005565  00000+0  93833-3 0  9997", "line2": "2 34343  74.0207  77.0603 0023937 349.6220  32.3565 14.69535137888251"}}, "geometry": {"type": "Point", "coordinates": [81.73071942308887, 20.00941367970261]}}, {"type": "Feature", "properties": {"norad_id": 34344, "name": "COSMOS 2251 DEB", "group": "cosmos-2251-debris", "lat": -19.935601437214018, "lon": -76.38624408269852, "alt_km": 820.1563026924105, "timestamp": "2025-12-19T20:43:00.479924+00:00", "meta": {"OBJECT_NAME": "COSMOS 2251 DEB", "OBJECT_ID": "1993-036PS", "EPOCH": "2025-12-18T17:13:37.907904", "MEAN_MOTION": 14.16454578, "ECCENTRICITY": 0.01562401, "INCLINATION": 73.9796, "RA_OF_ASC_NODE": 99.676, "ARG_OF_PERICENTER": 282.6089, "MEAN_ANOMALY": 201.4311, "EPHEMERIS_TYPE": 0, "CLASSIFICATION_TYPE": "U", "NORAD_CAT_ID": 34344, "ELEMENT_SET_NO": 999, "REV_AT_EPOCH": 86181, "BSTAR": 0.0015826322, "MEAN_MOTION_DOT": 3.521e-05, "MEAN_MOTION_DDOT": 0}, "tle": {"line1": "1 34344U 93036PS  25352.71779986  .00003521  00000+0  15826-2 0  9994", "line2": "2 34344  73.9796  99.6760 0156240 282.6089 201.4311 14.16454578861812"}}, "geometry": {"type": "Point", "coordinates": [-76.38624408269852, -19.935601437214018]}}, {"type": "Feature", "properties": {"norad_id": 34346, "name": "COSMOS 2251 DEB", "group": "cosmos-2251-debris", "lat": -62.91785560574735, "lon": 154.0340090694383, "alt_km": 997.6202303189575, "timestamp": "2025-12-19T20:43:00.479935+00:00", "meta": {"OBJECT_NAME": "COSMOS 2251 DEB", "OBJECT_ID": "1993-036PU", "EPOCH": "2025-12-18T21:33:18.959040", "MEAN_MOTION": 13.99711117, "ECCENTRICITY": 0.02061809, "INCLINATION": 73.9946, "RA_OF_ASC_NODE": 301.5601, "ARG_OF_PERICENTER": 119.0026, "MEAN_ANOMALY": 305.9706, "EPHEMERIS_TYPE": 0, "CLASSIFICATION_TYPE": "U", "NORAD_CAT_ID": 34346, "ELEMENT_SET_NO": 999, "REV_AT_EPOCH": 85496, "BSTAR": 0.00077636968, "MEAN_MOTION_DOT": 1.342e-05, "MEAN_MOTION_DDOT": 0}, "tle": {"line1": "1 34346U 93036PU  25352.89813610  .00001342  00000+0  77637-3 0  9996", "line2": "2 34346  73.9946 301.5601 0206180 119.0026 305.9706 13.99711117854964"}}, "geometry": {"type": "Point", "coordinates": [154.0340090694383, -62.91785560574735]}}, {"type": "Feature", "properties": {"norad_id": 34383, "name": "COSMOS 2251 DEB", "group": "cosmos-2251-debris", "lat": 11.361591207057048, "lon": -73.69789728203264, "alt_km": 536.8031064133893, "timestamp": "2025-12-19T20:43:00.479945+00:00", "meta": {"OBJECT_NAME": "COSMOS 2251 DEB", "OBJECT_ID": "1993-036PY", "EPOCH": "2025-12-19T05:17:49.170336", "MEAN_MOTION": 15.09542089, "ECCENTRICITY": 0.0003056, "INCLINATION": 74.022, "RA_OF_ASC_NODE": 284.3273, "ARG_OF_PERICENTER": 47.3429, "MEAN_ANOMALY": 74.5366, "EPHEMERIS_TYPE": 0, "CLASSIFICATION_TYPE": "U", "NORAD_CAT_ID": 34383, "ELEMENT_SET_NO": 999, "REV_AT_EPOCH": 89211, "BSTAR": 0.0021537134, "MEAN_MOTION_DOT": 0.00034699, "MEAN_MOTION_DDOT": 0}, "tle": {"line1": "1 34383U 93036PY  25353.22070799  .00034699  00000+0  21537-2 0  9996", "line2": "2 34383  74.0220 284.3273 0003056  47.3429  74.5366 15.09542089892115"}}, "geometry": {"type": "Point", "coordinates": [-73.69789728203264, 11.361591207057048]}}, {"type": "Feature", "properties": {"norad_id": 34387, "name": "COSMOS 2251 DEB", "group": "cosmos-2251-debris", "lat": 65.18400616409134, "lon": -123.10579060274127, "alt_km": 759.1784366550037, "timestamp": "2025-12-19T20:43:00.480020+00:00", "meta": {"OBJECT_NAME": "COSMOS 2251 DEB", "OBJECT_ID": "1993-036QC", "EPOCH": "2025-12-18T14:45:13.749408", "MEAN_MOTION": 14.43832865, "ECCENTRICITY": 0.00388476, "INCLINATION": 74.0389, "RA_OF_ASC_NODE": 200.9758, "ARG_OF_PERICENTER": 296.8914, "MEAN_ANOMALY": 126.9828, "EPHEMERIS_TYPE": 0, "CLASSIFICATION_TYPE": "U", "NORAD_CAT_ID": 34387, "ELEMENT_SET_NO": 999, "REV_AT_EPOCH": 88266, "BSTAR": 0.00022689206, "MEAN_MOTION_DOT": 7.53e-06, "MEAN_MOTION_DDOT": 0}, "tle": {"line1": "1 34387U 93036QC  25352.61474247  .00000753  00000+0  22689-3 0  9992", "line2": "2 34387  74.0389 200.9758 0038847 296.8914 126.9828 14.43832865882668"}}, "geometry": {"type": "Point", "coordinates": [-123.10579060274127, 65.18400616409134]}}, {"type": "Feature", "properties": {"norad_id": 34388, "name": "COSMOS 2251 DEB", "group": "cosmos-2251-debris", "lat": -14.707311559148375, "lon": 34.05361212849276, "alt_km": 727.3266512111004, "timestamp": "2025-12-19T20:43:00.480032+00:00", "meta": {"OBJECT_NAME": "COSMOS 2251 DEB", "OBJECT_ID": "1993-036QD", "EPOCH": "2025-12-18T15:55:12.491328", "MEAN_MOTION": 14.49393097, "ECCENTRICITY": 0.00138701, "INCLINATION": 74.0383, "RA_OF_ASC_NODE": 211.9949, "ARG_OF_PERICENTER": 259.8763, "MEAN_ANOMALY": 157.3488, "EPHEMERIS_TYPE": 0, "CLASSIFICATION_TYPE": "U", "NORAD_CAT_ID": 34388, "ELEMENT_SET_NO": 999, "REV_AT_EPOCH": 88241, "BSTAR": 0.00046565528, "MEAN_MOTION_DOT": 1.755e-05, "MEAN_MOTION_DDOT": 0}, "tle": {"line1": "1 34388U 93036QD  25352.66333902  .00001755  00000+0  46566-3 0  9993", "line2": "2 34388  74.0383 211.9949 0013870 259.8763 157.3488 14.49393097882415"}}, "geometry": {"type": "Point", "coordinates": [34.05361212849276, -14.707311559148375]}}, {"type": "Feature", "properties": {"norad_id": 34389, "name": "COSMOS 2251 DEB", "group": "cosmos-2251-debris", "lat": 16.298580741216874, "lon": -118.58730141468843, "alt_km": 735.5692560543011, "timestamp": "2025-12-19T20:43:00.480043+00:00", "meta": {"OBJECT_NAME": "COSMOS 2251 DEB", "OBJECT_ID": "1993-036QE", "EPOCH": "2025-12-19T03:00:47.911392", "MEAN_MOTION": 14.4154771, "ECCENTRICITY": 0.00291995, "INCLINATION": 74.0181, "RA_OF_ASC_NODE": 237.9732, "ARG_OF_PERICENTER": 348.8426, "MEAN_ANOMALY": 161.5527, "EPHEMERIS_TYPE": 0, "CLASSIFICATION_TYPE": "U", "NORAD_CAT_ID": 34389, "ELEMENT_SET_NO": 999, "REV_AT_EPOCH": 88104, "BSTAR": 0.00026377286, "MEAN_MOTION_DOT": 8.35e-06, "MEAN_MOTION_DDOT": 0}, "tle": {"line1": "1 34389U 93036QE  25353.12555453  .00000835  00000+0  26377-3 0  9999", "line2": "2 34389  74.0181 237.9732 0029199 348.8426 161.5527 14.41547710881040"}}, "geometry": {"type": "Point", "coordinates": [-118.58730141468843, 16.298580741216874]}}, {"type": "Feature", "properties": {"norad_id": 34396, "name": "COSMOS 2251 DEB", "group": "cosmos-2251-debris", "lat": 61.345987486421045, "lon": 141.72539750051746, "alt_km": 639.6740101573305, "timestamp": "2025-12-19T20:43:00.480054+00:00", "meta": {"OBJECT_NAME": "COSMOS 2251 DEB", "OBJECT_ID": "1993-036QM", "EPOCH": "2025-12-18T19:03:21.663072", "MEAN_MOTION": 14.74574094, "ECCENTRICITY": 0.00052584, "INCLINATION": 74.0289, "RA_OF_ASC_NODE": 112.2056, "ARG_OF_PERICENTER": 151.4488, "MEAN_ANOMALY": 1.0635, "EPHEMERIS_TYPE": 0, "CLASSIFICATION_TYPE": "U", "NORAD_CAT_ID": 34396, "ELEMENT_SET_NO": 999, "REV_AT_EPOCH": 88435, "BSTAR": 0.001542552, "MEAN_MOTION_DOT": 0.00010261, "MEAN_MOTION_DDOT": 0}, "tle": {"line1": "1 34396U 93036QM  25352.79400073  .00010261  00000+0  15426-2 0  9992", "line2": "2 34396  74.0289 112.2056 0005258 151.4488   1.0635 14.74574094884353"}}, "geometry": {"type": "Point", "coordinates": [141.72539750051746, 61.345987486421045]}}]}